start=new Date('2022-03-18T00:00:00.000Z').valueOf();
sats=[{"MEAN_ANOMALY":"305.6458","FILE":"3363104","COUNTRY_CODE":"US","RA_OF_ASC_NODE":"105.3523","ARG_OF_PERICENTER":"54.4683","PERIAPSIS":"546.128","ECCENTRICITY":"0.00016310","BSTAR":"0.00000555110000","SITE":"AFETR","OBJECT_NAME":"STARLINK-2130","MEAN_MOTION_DDOT":"0.0000000000000","EPHEMERIS_TYPE":"0","PERIOD":"95.593","APOAPSIS":"548.387","SEMIMAJOR_AXIS":"6925.393","NORAD_CAT_ID":"47405","GP_ID":"198965993","EPOCH":"2022-03-17T11:22:42.601152","MEAN_MOTION_DOT":"-0.00000199","REV_AT_EPOCH":"6400","CENTER_NAME":"EARTH","OBJECT_TYPE":"PAYLOAD","CLASSIFICATION_TYPE":"U","MEAN_ELEMENT_THEORY":"SGP4","DECAY_DATE":null,"OBJECT_ID":"2021-005BJ","TLE_LINE1":"1 47405U 21005BJ  22076.47410418 -.00000199  00000-0  55511-5 0  9996","REF_FRAME":"TEME","ELEMENT_SET_NO":"999","MEAN_MOTION":"15.06385613","INCLINATION":"53.0537","RCS_SIZE":"LARGE","TIME_SYSTEM":"UTC","LAUNCH_DATE":"2021-01-20","TLE_LINE2":"2 47405  53.0537 105.3523 0001631  54.4683 305.6458 15.06385613 64004"},{"CLASSIFICATION_TYPE":"U","MEAN_ELEMENT_THEORY":"SGP4","OBJECT_ID":"2021-005BK","DECAY_DATE":null,"CENTER_NAME":"EARTH","OBJECT_TYPE":"PAYLOAD","TIME_SYSTEM":"UTC","RCS_SIZE":"LARGE","LAUNCH_DATE":"2021-01-20","TLE_LINE2":"2 47406  53.0546  75.8242 0001288  74.4179 285.6952 15.06393881 64411","MEAN_MOTION":"15.06393881","INCLINATION":"53.0546","TLE_LINE1":"1 47406U 21005BK  22076.36995540 -.00000474  00000-0 -12904-4 0  9994","REF_FRAME":"TEME","ELEMENT_SET_NO":"999","SITE":"AFETR","OBJECT_NAME":"STARLINK-2133","MEAN_MOTION_DDOT":"0.0000000000000","ARG_OF_PERICENTER":"74.4179","COUNTRY_CODE":"US","RA_OF_ASC_NODE":"75.8242","MEAN_ANOMALY":"285.6952","FILE":"3363104","PERIAPSIS":"546.340","BSTAR":"-0.00001290400000","ECCENTRICITY":"0.00012880","EPOCH":"2022-03-17T08:52:44.146560","MEAN_MOTION_DOT":"-0.00000474","GP_ID":"198966245","REV_AT_EPOCH":"6441","PERIOD":"95.593","EPHEMERIS_TYPE":"0","SEMIMAJOR_AXIS":"6925.367","NORAD_CAT_ID":"47406","APOAPSIS":"548.124"},{"OBJECT_NAME":"STARLINK-2134","MEAN_MOTION_DDOT":"0.0000000000000","SITE":"AFETR","PERIAPSIS":"545.937","ECCENTRICITY":"0.00018660","BSTAR":"0.00005107000000","ARG_OF_PERICENTER":"49.3523","COUNTRY_CODE":"US","RA_OF_ASC_NODE":"75.2033","MEAN_ANOMALY":"310.7628","FILE":"3363104","REV_AT_EPOCH":"6443","EPOCH":"2022-03-17T12:14:25.985472","MEAN_MOTION_DOT":"0.00000479","GP_ID":"198966994","SEMIMAJOR_AXIS":"6925.364","NORAD_CAT_ID":"47407","APOAPSIS":"548.522","PERIOD":"95.592","EPHEMERIS_TYPE":"0","OBJECT_ID":"2021-005BL","DECAY_DATE":null,"CLASSIFICATION_TYPE":"U","MEAN_ELEMENT_THEORY":"SGP4","OBJECT_TYPE":"PAYLOAD","CENTER_NAME":"EARTH","LAUNCH_DATE":"2021-01-20","TLE_LINE2":"2 47407  53.0543  75.2033 0001866  49.3523 310.7628 15.06394809 64430","TIME_SYSTEM":"UTC","RCS_SIZE":"LARGE","INCLINATION":"53.0543","MEAN_MOTION":"15.06394809","TLE_LINE1":"1 47407U 21005BL  22076.51002298  .00000479  00000-0  51070-4 0  9991","REF_FRAME":"TEME","ELEMENT_SET_NO":"999"},{"OBJECT_ID":"2021-005BM","DECAY_DATE":null,"MEAN_ELEMENT_THEORY":"SGP4","CLASSIFICATION_TYPE":"U","OBJECT_TYPE":"PAYLOAD","CENTER_NAME":"EARTH","TLE_LINE2":"2 47408  53.0560  75.9256 0001774  52.2759 307.8390 15.06397092 64414","LAUNCH_DATE":"2021-01-20","TIME_SYSTEM":"UTC","RCS_SIZE":"LARGE","MEAN_MOTION":"15.06397092","INCLINATION":"53.0560","ELEMENT_SET_NO":"999","TLE_LINE1":"1 47408U 21005BM  22076.34783977 -.00000348  00000-0 -44817-5 0  9992","REF_FRAME":"TEME","MEAN_MOTION_DDOT":"0.0000000000000","OBJECT_NAME":"STARLINK-2135","SITE":"AFETR","BSTAR":"-0.00000448170000","ECCENTRICITY":"0.00017740","PERIAPSIS":"545.994","COUNTRY_CODE":"US","RA_OF_ASC_NODE":"75.9256","ARG_OF_PERICENTER":"52.2759","FILE":"3363104","MEAN_ANOMALY":"307.8390","REV_AT_EPOCH":"6441","MEAN_MOTION_DOT":"-0.00000348","EPOCH":"2022-03-17T08:20:53.356128","GP_ID":"198965244","SEMIMAJOR_AXIS":"6925.357","NORAD_CAT_ID":"47408","APOAPSIS":"548.451","PERIOD":"95.592","EPHEMERIS_TYPE":"0"},{"INCLINATION":"53.0550","MEAN_MOTION":"15.06409041","ELEMENT_SET_NO":"999","REF_FRAME":"TEME","TLE_LINE1":"1 47548U 21009A   22076.95049220 -.00002957  00000-0 -17961-3 0  9990","TIME_SYSTEM":"UTC","RCS_SIZE":"LARGE","TLE_LINE2":"2 47548  53.0550  53.2252 0001691  51.2423 308.8717 15.06409041 61978","LAUNCH_DATE":"2021-02-04","CENTER_NAME":"EARTH","OBJECT_TYPE":"PAYLOAD","MEAN_ELEMENT_THEORY":"SGP4","CLASSIFICATION_TYPE":"U","DECAY_DATE":null,"OBJECT_ID":"2021-009A","PERIOD":"95.592","EPHEMERIS_TYPE":"0","SEMIMAJOR_AXIS":"6925.321","NORAD_CAT_ID":"47548","APOAPSIS":"548.357","MEAN_MOTION_DOT":"-0.00002957","EPOCH":"2022-03-17T22:48:42.526080","GP_ID":"198991915","REV_AT_EPOCH":"6197","ARG_OF_PERICENTER":"51.2423","COUNTRY_CODE":"US","RA_OF_ASC_NODE":"53.2252","FILE":"3363151","MEAN_ANOMALY":"308.8717","ECCENTRICITY":"0.00016910","BSTAR":"-0.00017961000000","PERIAPSIS":"546.015","SITE":"AFETR","MEAN_MOTION_DDOT":"0.0000000000000","OBJECT_NAME":"STARLINK-1782"},{"OBJECT_TYPE":"PAYLOAD","CENTER_NAME":"EARTH","OBJECT_ID":"2021-009B","DECAY_DATE":null,"MEAN_ELEMENT_THEORY":"SGP4","CLASSIFICATION_TYPE":"U","INCLINATION":"53.0567","MEAN_MOTION":"15.06388400","ELEMENT_SET_NO":"999","TLE_LINE1":"1 47549U 21009B   22076.94681189  .00002003  00000-0  15341-3 0  9996","REF_FRAME":"TEME","TLE_LINE2":"2 47549  53.0567  53.2431 0001692  60.0671 300.0486 15.06388400 61972","LAUNCH_DATE":"2021-02-04","TIME_SYSTEM":"UTC","RCS_SIZE":"LARGE","BSTAR":"0.00015341000000","ECCENTRICITY":"0.00016920","PERIAPSIS":"546.077","ARG_OF_PERICENTER":"60.0671","COUNTRY_CODE":"US","RA_OF_ASC_NODE":"53.2431","FILE":"3363151","MEAN_ANOMALY":"300.0486","MEAN_MOTION_DDOT":"0.0000000000000","OBJECT_NAME":"STARLINK-1806","SITE":"AFETR","SEMIMAJOR_AXIS":"6925.384","NORAD_CAT_ID":"47549","APOAPSIS":"548.421","PERIOD":"95.593","EPHEMERIS_TYPE":"0","REV_AT_EPOCH":"6197","MEAN_MOTION_DOT":"0.00002003","EPOCH":"2022-03-17T22:43:24.547296","GP_ID":"198992166"},{"MEAN_MOTION":"15.06389215","INCLINATION":"53.0549","REF_FRAME":"TEME","TLE_LINE1":"1 47550U 21009C   22076.42802550  .00004302  00000-0  30761-3 0  9995","ELEMENT_SET_NO":"999","TIME_SYSTEM":"UTC","RCS_SIZE":"LARGE","LAUNCH_DATE":"2021-02-04","TLE_LINE2":"2 47550  53.0549  45.5744 0001629  55.8166 304.2977 15.06389215 62030","CENTER_NAME":"EARTH","OBJECT_TYPE":"PAYLOAD","CLASSIFICATION_TYPE":"U","MEAN_ELEMENT_THEORY":"SGP4","OBJECT_ID":"2021-009C","DECAY_DATE":null,"PERIOD":"95.593","EPHEMERIS_TYPE":"0","SEMIMAJOR_AXIS":"6925.382","NORAD_CAT_ID":"47550","APOAPSIS":"548.375","EPOCH":"2022-03-17T10:16:21.403200","MEAN_MOTION_DOT":"0.00004302","GP_ID":"198966261","REV_AT_EPOCH":"6203","COUNTRY_CODE":"US","ARG_OF_PERICENTER":"55.8166","RA_OF_ASC_NODE":"45.5744","MEAN_ANOMALY":"304.2977","FILE":"3363104","PERIAPSIS":"546.118","BSTAR":"0.00030761000000","ECCENTRICITY":"0.00016290","SITE":"AFETR","OBJECT_NAME":"STARLINK-1909","MEAN_MOTION_DDOT":"0.0000000000000"},{"REV_AT_EPOCH":"6183","EPOCH":"2022-03-17T22:52:40.632384","MEAN_MOTION_DOT":"0.00000421","GP_ID":"198991165","SEMIMAJOR_AXIS":"6925.348","NORAD_CAT_ID":"47551","APOAPSIS":"548.468","PERIOD":"95.592","EPHEMERIS_TYPE":"0","OBJECT_NAME":"STARLINK-1938","MEAN_MOTION_DDOT":"0.0000000000000","SITE":"AFETR","PERIAPSIS":"545.958","ECCENTRICITY":"0.00018120","BSTAR":"0.00004714000000","ARG_OF_PERICENTER":"47.4968","COUNTRY_CODE":"US","RA_OF_ASC_NODE":"63.2079","MEAN_ANOMALY":"312.6174","FILE":"3363151","LAUNCH_DATE":"2021-02-04","TLE_LINE2":"2 47551  53.0556  63.2079 0001812  47.4968 312.6174 15.06400106 61830","TIME_SYSTEM":"UTC","RCS_SIZE":"LARGE","MEAN_MOTION":"15.06400106","INCLINATION":"53.0556","TLE_LINE1":"1 47551U 21009D   22076.95324806  .00000421  00000-0  47140-4 0  9995","REF_FRAME":"TEME","ELEMENT_SET_NO":"999","OBJECT_ID":"2021-009D","DECAY_DATE":null,"CLASSIFICATION_TYPE":"U","MEAN_ELEMENT_THEORY":"SGP4","OBJECT_TYPE":"PAYLOAD","CENTER_NAME":"EARTH"},{"CENTER_NAME":"EARTH","OBJECT_TYPE":"PAYLOAD","CLASSIFICATION_TYPE":"U","MEAN_ELEMENT_THEORY":"SGP4","OBJECT_ID":"2021-009E","DECAY_DATE":null,"TLE_LINE1":"1 47552U 21009E   22076.95788577  .00003026  00000-0  22207-3 0  9995","REF_FRAME":"TEME","ELEMENT_SET_NO":"999","MEAN_MOTION":"15.06377429","INCLINATION":"53.0557","RCS_SIZE":"LARGE","TIME_SYSTEM":"UTC","LAUNCH_DATE":"2021-02-04","TLE_LINE2":"2 47552  53.0557  53.1887 0001816  56.8613 303.2550 15.06377429 61972","MEAN_ANOMALY":"303.2550","FILE":"3363151","ARG_OF_PERICENTER":"56.8613","COUNTRY_CODE":"US","RA_OF_ASC_NODE":"53.1887","PERIAPSIS":"546.025","ECCENTRICITY":"0.00018160","BSTAR":"0.00022207000000","SITE":"AFETR","OBJECT_NAME":"STARLINK-1940","MEAN_MOTION_DDOT":"0.0000000000000","EPHEMERIS_TYPE":"0","PERIOD":"95.594","APOAPSIS":"548.540","SEMIMAJOR_AXIS":"6925.418","NORAD_CAT_ID":"47552","GP_ID":"198991415","EPOCH":"2022-03-17T22:59:21.330528","MEAN_MOTION_DOT":"0.00003026","REV_AT_EPOCH":"6197"},{"OBJECT_ID":"2021-009F","DECAY_DATE":null,"MEAN_ELEMENT_THEORY":"SGP4","CLASSIFICATION_TYPE":"U","OBJECT_TYPE":"PAYLOAD","CENTER_NAME":"EARTH","TLE_LINE2":"2 47553  53.0535  25.6456 0001679 136.2535 223.8620 15.80221752 62300","LAUNCH_DATE":"2021-02-04","TIME_SYSTEM":"UTC","RCS_SIZE":"LARGE","MEAN_MOTION":"15.80221752","INCLINATION":"53.0535","ELEMENT_SET_NO":"999","TLE_LINE1":"1 47553U 21009F   22076.26202519  .00073703  00000-0  38503-3 0  9992","REF_FRAME":"TEME","MEAN_MOTION_DDOT":"0.0000000000000","OBJECT_NAME":"STARLINK-1951","SITE":"AFETR","BSTAR":"0.00038503000000","ECCENTRICITY":"0.00016790","PERIAPSIS":"328.689","ARG_OF_PERICENTER":"136.2535","COUNTRY_CODE":"US","RA_OF_ASC_NODE":"25.6456","FILE":"3363104","MEAN_ANOMALY":"223.8620","REV_AT_EPOCH":"6230","MEAN_MOTION_DOT":"0.00073703","EPOCH":"2022-03-17T06:17:18.976416","GP_ID":"198965510","SEMIMAJOR_AXIS":"6707.950","NORAD_CAT_ID":"47553","APOAPSIS":"330.941","PERIOD":"91.126","EPHEMERIS_TYPE":"0"}];
